NORAD_CAT_ID,OBJECT_NAME,OBJECT_TYPE,EPOCH,MEAN_MOTION,ECCENTRICITY,INCLINATION,RA_OF_ASC_NODE,ARG_OF_PERICENTER,MEAN_ANOMALY,BSTAR,MEAN_MOTION_DOT,MEAN_MOTION_DDOT,TLE_LINE0,TLE_LINE1,TLE_LINE2,SEMIMAJOR_AXIS,PERIOD,APOGEE,PERIGEE,DECAYED
50842.0,STARLINK-3302,PAYLOAD,2023-07-19 08:28:26,15.08842273,0.0001125,53.2164,188.1967,87.0746,273.0375,7.4772e-05,9.02e-06,0.0,0 STARLINK-3302,1 50842U 22001AR  23200.35307967  .00000902  00000-0  74772-4 0  9993,2 50842  53.2164 188.1967 0001125  87.0746 273.0375 15.08842273 85968,6917.873,95.437,540.517,538.96,0.0
50842.0,STARLINK-3302,PAYLOAD,2023-07-21 01:48:27,15.08842854,0.000117,53.2166,180.4653,85.7556,274.3569,4.3537e-05,4.05e-06,0.0,0 STARLINK-3302,1 50842U 22001AR  23202.07532138  .00000405  00000-0  43537-4 0  9997,2 50842  53.2166 180.4653 0001170  85.7556 274.3569 15.08842854 86225,6917.872,95.437,540.546,538.927,0.0
50842.0,STARLINK-3302,PAYLOAD,2023-07-24 06:06:58,15.08836736,0.0001282,53.2168,166.1915,92.6142,267.4997,2.5934e-05,1.25e-06,0.0,0 STARLINK-3302,1 50842U 22001AR  23205.25484903  .00000125  00000-0  25934-4 0  9996,2 50842  53.2168 166.1915 0001282  92.6142 267.4997 15.08836736 85411,6917.89,95.438,540.642,538.868,0.0
50842.0,STARLINK-3302,PAYLOAD,2023-07-25 05:57:46,15.08834935,0.0001359,53.2166,161.7326,85.4502,274.6646,5.9907e-05,6.66e-06,0.0,0 STARLINK-3302,1 50842U 22001AR  23206.24845322  .00000666  00000-0  59907-4 0  9999,2 50842  53.2166 161.7326 0001359  85.4502 274.6646 15.08834935 85567,6917.896,95.438,540.701,538.821,0.0
50842.0,STARLINK-3302,PAYLOAD,2023-07-26 05:48:32,15.08842426,0.0001315,53.2171,157.2716,86.2253,273.889,6.3727e-05,7.27e-06,0.0,0 STARLINK-3302,1 50842U 22001AR  23207.24204844  .00000727  00000-0  63727-4 0  9991,2 50842  53.2171 157.2716 0001315  86.2253 273.8890 15.08842426 85713,6917.873,95.437,540.648,538.828,0.0
50842.0,STARLINK-3302,PAYLOAD,2023-07-27 13:36:16,15.08831558,0.0001473,53.2174,151.3233,81.7624,278.3535,-1.8521e-05,-5.83e-06,0.0,0 STARLINK-3302,1 50842U 22001AR  23208.56685830 -.00000583  00000-0 -18521-4 0  9999,2 50842  53.2174 151.3233 0001473  81.7624 278.3535 15.08831558 85914,6917.906,95.438,540.79,538.752,0.0
50842.0,STARLINK-3302,PAYLOAD,2023-07-28 13:27:03,15.08838246,0.0001299,53.2179,146.8616,94.1688,265.9453,-3.2087e-05,-7.98e-06,0.0,0 STARLINK-3302,1 50842U 22001AR  23209.56045697 -.00000798  00000-0 -32087-4 0  9992,2 50842  53.2179 146.8616 0001299  94.1688 265.9453 15.08838246 86066,6917.886,95.438,540.649,538.852,0.0
50842.0,STARLINK-3302,PAYLOAD,2023-07-29 02:10:07,15.08851113,0.0001626,53.2165,144.484,105.9582,254.1589,7.4114e-05,8.92e-06,0.0,0 STARLINK-3302,1 50842U 22001AR  23210.09036558  .00000892  00000-0  74114-4 0  9998,2 50842  53.2165 144.4840 0001626 105.9582 254.1589 15.08851113 87432,6917.846,95.437,540.836,538.587,0.0
50842.0,STARLINK-3302,PAYLOAD,2023-07-30 02:00:55,15.08841442,0.0001285,53.2177,140.026,80.2341,279.8796,9.0609e-05,1.155e-05,0.0,0 STARLINK-3302,1 50842U 22001AR  23211.08397228  .00001155  00000-0  90609-4 0  9992,2 50842  53.2177 140.0260 0001285  80.2341 279.8796 15.08841442 87586,6917.876,95.437,540.63,538.852,0.0
50842.0,STARLINK-3302,PAYLOAD,2023-07-31 01:51:42,15.08841267,0.0001274,53.2165,135.5632,83.4562,276.6575,-3.4318e-05,-8.34e-06,0.0,0 STARLINK-3302,1 50842U 22001AR  23212.07757652 -.00000834  00000-0 -34318-4 0  9993,2 50842  53.2165 135.5632 0001274  83.4562 276.6575 15.08841267 87735,6917.877,95.437,540.623,538.86,0.0
50842.0,STARLINK-3302,PAYLOAD,2023-08-01 17:36:22,15.08816241,0.0001201,53.2171,128.1299,83.3537,276.7592,0.0002536,3.748e-05,0.0,0 STARLINK-3302,1 50842U 22001AR  23213.73359082  .00003748  00000-0  25360-3 0  9993,2 50842  53.2171 128.1299 0001201  83.3537 276.7592 15.08816241 87981,6917.953,95.439,540.649,538.987,0.0
50842.0,STARLINK-3302,PAYLOAD,2023-08-02 03:08:40,15.08838227,0.0001254,53.2167,126.3454,83.3076,276.8058,5.5219e-05,5.91e-06,0.0,0 STARLINK-3302,1 50842U 22001AR  23214.13102226  .00000591  00000-0  55219-4 0  9994,2 50842  53.2167 126.3454 0001254  83.3076 276.8058 15.08838227 88049,6917.886,95.438,540.618,538.883,0.0
50842.0,STARLINK-3302,PAYLOAD,2023-08-03 01:24:03,15.08854844,0.0001749,53.2181,122.1825,117.2217,242.8953,-4.9356e-05,-1.074e-05,0.0,0 STARLINK-3302,1 50842U 22001AR  23215.05837618 -.00001074  00000-0 -49356-4 0  9990,2 50842  53.2181 122.1825 0001749 117.2217 242.8953 15.08854844 88189,6917.835,95.437,540.91,538.49,0.0
50842.0,STARLINK-3302,PAYLOAD,2023-08-04 02:50:15,15.08836059,0.0001376,53.2172,117.4237,91.5572,268.5578,1.8731e-05,1e-07,0.0,0 STARLINK-3302,1 50842U 22001AR  23216.11822934  .00000010  00000-0  18731-4 0  9993,2 50842  53.2172 117.4237 0001376  91.5572 268.5578 15.08836059 88341,6917.892,95.438,540.709,538.806,0.0
50842.0,STARLINK-3302,PAYLOAD,2023-08-04 23:30:14,15.08850927,0.0001266,53.2168,113.558,92.8944,267.2193,3.7414e-05,3.08e-06,0.0,0 STARLINK-3302,1 50842U 22001AR  23216.97933932  .00000308  00000-0  37414-4 0  9997,2 50842  53.2168 113.5580 0001266  92.8944 267.2193 15.08850927 88472,6917.847,95.437,540.588,538.836,0.0
50842.0,STARLINK-3302,PAYLOAD,2023-08-06 02:31:47,15.08857344,0.0001162,53.2164,108.502,102.5715,257.5407,0.00022558,3.306e-05,0.0,0 STARLINK-3302,1 50842U 22001AR  23218.10540548  .00003306  00000-0  22558-3 0  9994,2 50842  53.2164 108.5020 0001162 102.5715 257.5407 15.08857344 88640,6917.827,95.436,540.496,538.889,0.0
50842.0,STARLINK-3302,PAYLOAD,2023-08-07 02:22:36,15.08820836,0.0001178,53.2165,104.0431,88.7664,271.3463,-0.00024956,-4.255e-05,0.0,0 STARLINK-3302,1 50842U 22001AR  23219.09903725 -.00004255  00000-0 -24956-3 0  9993,2 50842  53.2165 104.0431 0001178  88.7664 271.3463 15.08820836 88791,6917.939,95.439,540.619,538.989,0.0
50842.0,STARLINK-3302,PAYLOAD,2023-08-08 02:13:23,15.08845997,0.0001122,53.216,99.5827,79.8883,280.2236,0.00020957,3.05e-05,0.0,0 STARLINK-3302,1 50842U 22001AR  23220.09263304  .00003050  00000-0  20957-3 0  9994,2 50842  53.2160  99.5827 0001122  79.8883 280.2236 15.08845997 88945,6917.862,95.437,540.503,538.951,0.0
50842.0,STARLINK-3302,PAYLOAD,2023-08-09 02:04:09,15.0888787,0.0001104,53.2161,95.1222,75.3139,284.7976,0.0012792,0.00020156,0.0,0 STARLINK-3302,1 50842U 22001AR  23221.08622256  .00020156  00000-0  12792-2 0  9992,2 50842  53.2161  95.1222 0001104  75.3139 284.7976 15.08887870 89095,6917.734,95.435,540.363,538.835,0.0
50842.0,STARLINK-3302,PAYLOAD,2023-08-09 08:25:42,15.08856364,9.43e-05,53.216,93.9328,79.2521,280.8577,-6.6239e-05,-1.342e-05,0.0,0 STARLINK-3302,1 50842U 22001AR  23221.35118409 -.00001342  00000-0 -66239-4 0  9997,2 50842  53.2160  93.9328 0000943  79.2521 280.8577 15.08856364 89138,6917.83,95.437,540.348,539.043,0.0
50842.0,STARLINK-3302,PAYLOAD,2023-08-10 00:19:33,15.08843985,0.0001337,53.2158,90.9594,84.9866,275.1279,0.00012962,1.776e-05,0.0,0 STARLINK-3302,1 50842U 22001AR  23222.01358635  .00001776  00000-0  12962-3 0  9990,2 50842  53.2158  90.9594 0001337  84.9866 275.1279 15.08843985 89232,6917.868,95.437,540.658,538.808,0.0
50842.0,STARLINK-3302,PAYLOAD,2023-08-10 08:16:29,15.08835113,0.0001422,53.2157,89.4724,88.6456,271.4699,0.00020149,2.92e-05,0.0,0 STARLINK-3302,1 50842U 22001AR  23222.34478973  .00002920  00000-0  20149-3 0  9992,2 50842  53.2157  89.4724 0001422  88.6456 271.4699 15.08835113 89284,6917.895,95.438,540.744,538.777,0.0
50842.0,STARLINK-3302,PAYLOAD,2023-08-11 22:25:45,15.08840107,0.0001049,53.2149,82.3345,94.8717,265.2395,0.00017611,2.516e-05,0.0,0 STARLINK-3302,1 50842U 22001AR  23223.93455331  .00002516  00000-0  17611-3 0  9992,2 50842  53.2149  82.3345 0001049  94.8717 265.2395 15.08840107 89520,6917.88,95.438,540.471,539.019,0.0
50842.0,STARLINK-3302,PAYLOAD,2023-08-13 18:56:33,15.08842256,0.0001022,53.2164,74.0114,91.2862,268.8248,8.3936e-05,1.048e-05,0.0,0 STARLINK-3302,1 50842U 22001AR  23225.78927254  .00001048  00000-0  83936-4 0  9998,2 50842  53.2164  74.0114 0001022  91.2862 268.8248 15.08842256 89806,6917.873,95.437,540.445,539.031,0.0
50842.0,STARLINK-3302,PAYLOAD,2023-08-14 23:33:29,15.08844794,0.0001408,53.2166,68.6562,106.4358,253.6789,1.8103e-05,0.0,0.0,0 STARLINK-3302,1 50842U 22001AR  23226.98159029  .00000000  00000-0  18103-4 0  9999,2 50842  53.2166  68.6562 0001408 106.4358 253.6789 15.08844794 89981,6917.866,95.437,540.705,538.757,0.0
50842.0,STARLINK-3302,PAYLOAD,2023-08-15 13:51:57,15.08838228,0.0001248,53.2163,65.9796,92.6644,267.4491,6.2661e-05,7.09e-06,0.0,0 STARLINK-3302,1 50842U 22001AR  23227.57775431  .00000709  00000-0  62661-4 0  9990,2 50842  53.2163  65.9796 0001248  92.6644 267.4491 15.08838228 90073,6917.886,95.438,540.614,538.887,0.0
50842.0,STARLINK-3302,PAYLOAD,2023-08-16 23:15:03,15.08839904,0.0001334,53.2154,59.7356,94.8088,265.3056,0.00011339,1.517e-05,0.0,0 STARLINK-3302,1 50842U 22001AR  23228.96879565  .00001517  00000-0  11339-3 0  9990,2 50842  53.2154  59.7356 0001334  94.8088 265.3056 15.08839904 90287,6917.881,95.438,540.669,538.823,0.0
50842.0,STARLINK-3302,PAYLOAD,2023-08-18 11:48:56,15.08838794,0.000134,53.2148,52.8953,87.4849,272.6297,7.1139e-05,8.44e-06,0.0,0 STARLINK-3302,1 50842U 22001AR  23230.49231964  .00000844  00000-0  71139-4 0  9993,2 50842  53.2148  52.8953 0001340  87.4849 272.6297 15.08838794 90517,6917.884,95.438,540.676,538.822,0.0
50842.0,STARLINK-3302,PAYLOAD,2023-08-19 19:36:39,15.0883914,0.0001406,53.2165,46.9496,82.5549,277.5603,7.952e-05,9.78e-06,0.0,0 STARLINK-3302,1 50842U 22001AR  23231.81712160  .00000978  00000-0  79520-4 0  9992,2 50842  53.2165  46.9496 0001406  82.5549 277.5603 15.08839140 90711,6917.883,95.438,540.721,538.775,0.0
50842.0,STARLINK-3302,PAYLOAD,2023-08-20 22:38:11,15.08850796,0.0001441,53.2167,41.8944,82.1308,277.9848,0.00019036,2.744e-05,0.0,0 STARLINK-3302,1 50842U 22001AR  23232.94319150  .00002744  00000-0  19036-3 0  9997,2 50842  53.2167  41.8944 0001441  82.1308 277.9848 15.08850796 90886,6917.847,95.437,540.709,538.716,0.0
